{"type": "FeatureCollection", "features": [ {"type": "Feature", "properties": {"norad_id": 66988, "name": "YAOGAN-47", "group": "last-30-days", "lat": -32.657246363527584, "lon": -125.32123783128613, "alt_km": 502.4984843165694, "timestamp": "2025-12-20T09:36:00.355326+00:00", "meta": {"OBJECT_NAME": "YAOGAN-47", "OBJECT_ID": "2025-289A", "EPOCH": "2025-12-20T02:21:43.539840", "MEAN_MOTION": 15.23243112, "ECCENTRICITY": 6.47e-05, "INCLINATION": 97.5265, "RA_OF_ASC_NODE": 59.2376, "ARG_OF_PERICENTER": 91.4531, "MEAN_ANOMALY": 268.6779, "EPHEMERIS_TYPE": 0, "CLASSIFICATION_TYPE": "U", "NORAD_CAT_ID": 66988, "ELEMENT_SET_NO": 999, "REV_AT_EPOCH": 166, "BSTAR": 0.00010946, "MEAN_MOTION_DOT": 2.52e-05, "MEAN_MOTION_DDOT": 0}, "tle": {"line1": "1 66988U 25289A   25354.09842060  .00002520  00000+0  10946-3 0  9992", "line2": "2 66988  97.5265  59.2376 0000647  91.4531 268.6779 15.23243112  1667"}}, "geometry": {"type": "Point", "coordinates": [-125.32123783128613, -32.657246363527584]}}, {"type": "Feature", "properties": {"norad_id": 66989, "name": "CZ-4B R/B", "group": "last-30-days", "lat": 0.37435505003718955, "lon": -119.64743644232519, "alt_km": 451.6690813634377, "timestamp": "2025-12-20T09:36:00.355337+00:00", "meta": {"OBJECT_NAME": "CZ-4B R/B", "OBJECT_ID": "2025-289B", "EPOCH": "2025-12-20T04:14:22.087392", "MEAN_MOTION": 15.68977021, "ECCENTRICITY": 0.0143404, "INCLINATION": 97.5256, "RA_OF_ASC_NODE": 60.0631, "ARG_OF_PERICENTER": 334.7401, "MEAN_ANOMALY": 24.6893, "EPHEMERIS_TYPE": 0, "CLASSIFICATION_TYPE": "U", "NORAD_CAT_ID": 66989, "ELEMENT_SET_NO": 999, "REV_AT_EPOCH": 173, "BSTAR": 0.00046062, "MEAN_MOTION_DOT": 0.0009578, "MEAN_MOTION_DDOT": 4.8888e-06}, "tle": {"line1": "1 66989U 25289B   25354.17664453  .00095780  48888-5  46062-3 0  9990", "line2": "2 66989  97.5256  60.0631 0143404 334.7401  24.6893 15.68977021  1737"}}, "geometry": {"type": "Point", "coordinates": [-119.64743644232519, 0.37435505003718955]}}, {"type": "Feature", "properties": {"norad_id": 66990, "name": "TJS-22", "group": "last-30-days", "lat": 0.4784125325693742, "lon": -60.3066118842229, "alt_km": 35774.01137510382, "timestamp": "2025-12-20T09:36:00.355349+00:00", "meta": {"OBJECT_NAME": "TJS-22", "OBJECT_ID": "2025-290A", "EPOCH": "2025-12-19T08:44:06.190656", "MEAN_MOTION": 1.00270606, "ECCENTRICITY": 0.0003457, "INCLINATION": 1.972, "RA_OF_ASC_NODE": 285.0205, "ARG_OF_PERICENTER": 341.6684, "MEAN_ANOMALY": 19.0133, "EPHEMERIS_TYPE": 0, "CLASSIFICATION_TYPE": "U", "NORAD_CAT_ID": 66990, "ELEMENT_SET_NO": 999, "REV_AT_EPOCH": 22, "BSTAR": 0, "MEAN_MOTION_DOT": 2e-07, "MEAN_MOTION_DDOT": 0}, "tle": {"line1": "1 66990U 25290A   25353.36396054  .00000020  00000+0  00000+0 0  9992", "line2": "2 66990   1.9720 285.0205 0003457 341.6684  19.0133  1.00270606   227"}}, "geometry": {"type": "Point", "coordinates": [-60.3066118842229, 0.4784125325693742]}}, {"type": "Feature", "properties": {"norad_id": 66991, "name": "CZ-3B R/B", "group": "last-30-days", "lat": 7.806231041347195, "lon": -46.749809956607116, "alt_km": 32506.19252262817, "timestamp": "2025-12-20T09:36:00.355363+00:00", "meta": {"OBJECT_NAME": "CZ-3B R/B", "OBJECT_ID": "2025-290B", "EPOCH": "2025-12-15T17:23:33.043200", "MEAN_MOTION": 2.38388611, "ECCENTRICITY": 0.7240884, "INCLINATION": 28.4636, "RA_OF_ASC_NODE": 300.4666, "ARG_OF_PERICENTER": 182.7002, "MEAN_ANOMALY": 168.625, "EPHEMERIS_TYPE": 0, "CLASSIFICATION_TYPE": "U", "NORAD_CAT_ID": 66991, "ELEMENT_SET_NO": 999, "REV_AT_EPOCH": 16, "BSTAR": 0.00075879, "MEAN_MOTION_DOT": 0.00057911, "MEAN_MOTION_DDOT": -2.0514e-07}, "tle": {"line1": "1 66991U 25290B   25349.72468800  .00057911 -20514-6  75879-3 0  9998", "line2": "2 66991  28.4636 300.4666 7240884 182.7002 168.6250  2.38388611   165"}}, "geometry": {"type": "Point", "coordinates": [-46.749809956607116, 7.806231041347195]}}, {"type": "Feature", "properties": {"norad_id": 66993, "name": "2025-292A", "group": "last-30-days", "lat": 59.55072202780219, "lon": 53.655658457558374, "alt_km": 556.8225393971125, "timestamp": "2025-12-20T09:36:00.355374+00:00", "meta": {"OBJECT_NAME": "2025-292A", "OBJECT_ID": "2025-292A", "EPOCH": "2025-12-20T02:56:49.776576", "MEAN_MOTION": 15.04544845, "ECCENTRICITY": 0.0013974, "INCLINATION": 97.6524, "RA_OF_ASC_NODE": 66.6027, "ARG_OF_PERICENTER": 245.034, "MEAN_ANOMALY": 114.9435, "EPHEMERIS_TYPE": 0, "CLASSIFICATION_TYPE": "U", "NORAD_CAT_ID": 66993, "ELEMENT_SET_NO": 999, "REV_AT_EPOCH": 150, "BSTAR": 0.00017978, "MEAN_MOTION_DOT": 2.463e-05, "MEAN_MOTION_DDOT": 0}, "tle": {"line1": "1 66993U 25292A   25354.12279834  .00002463  00000+0  17978-3 0  9997", "line2": "2 66993  97.6524  66.6027 0013974 245.0340 114.9435 15.04544845  1500"}}, "geometry": {"type": "Point", "coordinates": [53.655658457558374, 59.55072202780219]}}, {"type": "Feature", "properties": {"norad_id": 66994, "name": "2025-292B", "group": "last-30-days", "lat": 61.11752960367834, "lon": 52.77004034385267, "alt_km": 556.3699605850006, "timestamp": "2025-12-20T09:36:00.355384+00:00", "meta": {"OBJECT_NAME": "2025-292B", "OBJECT_ID": "2025-292B", "EPOCH": "2025-12-20T04:32:10.534848", "MEAN_MOTION": 15.04587084, "ECCENTRICITY": 0.0013745, "INCLINATION": 97.6533, "RA_OF_ASC_NODE": 66.6699, "ARG_OF_PERICENTER": 245.1204, "MEAN_ANOMALY": 114.8594, "EPHEMERIS_TYPE": 0, "CLASSIFICATION_TYPE": "U", "NORAD_CAT_ID": 66994, "ELEMENT_SET_NO": 999, "REV_AT_EPOCH": 151, "BSTAR": 0.00021465, "MEAN_MOTION_DOT": 2.956e-05, "MEAN_MOTION_DDOT": 0}, "tle": {"line1": "1 66994U 25292B   25354.18901082  .00002956  00000+0  21465-3 0  9994", "line2": "2 66994  97.6533  66.6699 0013745 245.1204 114.8594 15.04587084  1510"}}, "geometry": {"type": "Point", "coordinates": [52.77004034385267, 61.11752960367834]}}, {"type": "Feature", "properties": {"norad_id": 66995, "name": "2025-292C", "group": "last-30-days", "lat": 61.58018637306439, "lon": 52.491933507635814, "alt_km": 556.4457368604153, "timestamp": "2025-12-20T09:36:00.355394+00:00", "meta": {"OBJECT_NAME": "2025-292C", "OBJECT_ID": "2025-292C", "EPOCH": "2025-12-20T04:32:03.130368", "MEAN_MOTION": 15.04613931, "ECCENTRICITY": 0.0014046, "INCLINATION": 97.6523, "RA_OF_ASC_NODE": 66.669, "ARG_OF_PERICENTER": 245.4865, "MEAN_ANOMALY": 114.4897, "EPHEMERIS_TYPE": 0, "CLASSIFICATION_TYPE": "U", "NORAD_CAT_ID": 66995, "ELEMENT_SET_NO": 999, "REV_AT_EPOCH": 151, "BSTAR": 0.00023851, "MEAN_MOTION_DOT": 3.294e-05, "MEAN_MOTION_DDOT": 0}, "tle": {"line1": "1 66995U 25292C   25354.18892512  .00003294  00000+0  23851-3 0  9999", "line2": "2 66995  97.6523  66.6690 0014046 245.4865 114.4897 15.04613931  1515"}}, "geometry": {"type": "Point", "coordinates": [52.491933507635814, 61.58018637306439]}}, {"type": "Feature", "properties": {"norad_id": 66996, "name": "2025-292D", "group": "last-30-days", "lat": 63.13748383569232, "lon": 51.48581734717027, "alt_km": 555.6031826132057, "timestamp": "2025-12-20T09:36:00.355405+00:00", "meta": {"OBJECT_NAME": "2025-292D", "OBJECT_ID": "2025-292D", "EPOCH": "2025-12-20T04:31:37.701120", "MEAN_MOTION": 15.04642118, "ECCENTRICITY": 0.0013203, "INCLINATION": 97.6517, "RA_OF_ASC_NODE": 66.6687, "ARG_OF_PERICENTER": 248.1837, "MEAN_ANOMALY": 111.7984, "EPHEMERIS_TYPE": 0, "CLASSIFICATION_TYPE": "U", "NORAD_CAT_ID": 66996, "ELEMENT_SET_NO": 999, "REV_AT_EPOCH": 151, "BSTAR": 0.00015698, "MEAN_MOTION_DOT": 2.148e-05, "MEAN_MOTION_DDOT": 0}, "tle": {"line1": "1 66996U 25292D   25354.18863080  .00002148  00000+0  15698-3 0  9995", "line2": "2 66996  97.6517  66.6687 0013203 248.1837 111.7984 15.04642118  1514"}}, "geometry": {"type": "Point", "coordinates": [51.48581734717027, 63.13748383569232]}}, {"type": "Feature", "properties": {"norad_id": 66997, "name": "2025-292E", "group": "last-30-days", "lat": 65.97258544823379, "lon": 49.325161654755775, "alt_km": 555.3373721069147, "timestamp": "2025-12-20T09:36:00.355415+00:00", "meta": {"OBJECT_NAME": "2025-292E", "OBJECT_ID": "2025-292E", "EPOCH": "2025-12-20T04:30:51.051168", "MEAN_MOTION": 15.04727729, "ECCENTRICITY": 0.0013587, "INCLINATION": 97.6537, "RA_OF_ASC_NODE": 66.6718, "ARG_OF_PERICENTER": 249.1566, "MEAN_ANOMALY": 110.8205, "EPHEMERIS_TYPE": 0, "CLASSIFICATION_TYPE": "U", "NORAD_CAT_ID": 66997, "ELEMENT_SET_NO": 999, "REV_AT_EPOCH": 150, "BSTAR": 0.00017765, "MEAN_MOTION_DOT": 2.445e-05, "MEAN_MOTION_DDOT": 0}, "tle": {"line1": "1 66997U 25292E   25354.18809087  .00002445  00000+0  17765-3 0  9990", "line2": "2 66997  97.6537  66.6718 0013587 249.1566 110.8205 15.04727729  1504"}}, "geometry": {"type": "Point", "coordinates": [49.325161654755775, 65.97258544823379]}}, {"type": "Feature", "properties": {"norad_id": 66998, "name": "2025-292F", "group": "last-30-days", "lat": 71.36054481663727, "lon": 43.384455731019614, "alt_km": 555.1106711228513, "timestamp": "2025-12-20T09:36:00.355425+00:00", "meta": {"OBJECT_NAME": "2025-292F", "OBJECT_ID": "2025-292F", "EPOCH": "2025-12-20T04:29:20.301792", "MEAN_MOTION": 15.04896854, "ECCENTRICITY": 0.00147, "INCLINATION": 97.6557, "RA_OF_ASC_NODE": 66.6754, "ARG_OF_PERICENTER": 249.994, "MEAN_ANOMALY": 109.9704, "EPHEMERIS_TYPE": 0, "CLASSIFICATION_TYPE": "U", "NORAD_CAT_ID": 66998, "ELEMENT_SET_NO": 999, "REV_AT_EPOCH": 151, "BSTAR": 0.00023243, "MEAN_MOTION_DOT": 3.234e-05, "MEAN_MOTION_DDOT": 0}, "tle": {"line1": "1 66998U 25292F   25354.18704053  .00003234  00000+0  23243-3 0  9993", "line2": "2 66998  97.6557  66.6754 0014700 249.9940 109.9704 15.04896854  1519"}}, "geometry": {"type": "Point", "coordinates": [43.384455731019614, 71.36054481663727]}}]}